NORAD_CAT_ID,OBJECT_NAME,OBJECT_TYPE,EPOCH,MEAN_MOTION,ECCENTRICITY,INCLINATION,RA_OF_ASC_NODE,ARG_OF_PERICENTER,MEAN_ANOMALY,BSTAR,MEAN_MOTION_DOT,MEAN_MOTION_DDOT,TLE_LINE0,TLE_LINE1,TLE_LINE2,SEMIMAJOR_AXIS,PERIOD,APOGEE,PERIGEE,DECAYED
53417.0,STARLINK-4484,PAYLOAD,2024-05-13 15:17:41,15.08879225,0.0001426,53.2159,219.6582,110.5844,249.5301,0.0014518,0.00022918,0.0,0 STARLINK-4484,1 53417U 22097AF  24134.63728042  .00022918  00000-0  14518-2 0  9999,2 53417  53.2159 219.6582 0001426 110.5844 249.5301 15.08879225 98228,6917.76,95.435,540.612,538.639,0.0
53417.0,STARLINK-4484,PAYLOAD,2024-05-14 11:57:39,15.08896115,0.000138,53.216,215.7916,110.5482,249.5658,0.00077949,0.00012158,0.0,0 STARLINK-4484,1 53417U 22097AF  24135.49837330  .00012158  00000-0  77949-3 0  9998,2 53417  53.2160 215.7916 0001380 110.5482 249.5658 15.08896115 97899,6917.709,95.434,540.529,538.619,0.0
53417.0,STARLINK-4484,PAYLOAD,2024-05-15 10:13:01,15.08889731,0.0001234,53.216,211.6283,112.3591,247.7532,0.00067909,0.00010551,0.0,0 STARLINK-4484,1 53417U 22097AF  24136.42571106  .00010551  00000-0  67909-3 0  9998,2 53417  53.2160 211.6283 0001234 112.3591 247.7532 15.08889731 98034,6917.728,95.434,540.447,538.74,0.0
53417.0,STARLINK-4484,PAYLOAD,2024-05-15 14:59:10,15.08879593,0.0001301,53.2172,210.7375,101.151,258.9629,0.00031265,4.697e-05,0.0,0 STARLINK-4484,1 53417U 22097AF  24136.62442803  .00004697  00000-0  31265-3 0  9991,2 53417  53.2172 210.7375 0001301 101.1510 258.9629 15.08879593 98060,6917.759,95.435,540.524,538.724,0.0
53417.0,STARLINK-4484,PAYLOAD,2024-05-16 11:39:11,15.08849977,0.0001182,53.2167,206.8692,102.143,257.9695,-0.00018334,-3.205e-05,0.0,0 STARLINK-4484,1 53417U 22097AF  24137.48554650 -.00003205  00000-0 -18334-3 0  9998,2 53417  53.2167 206.8692 0001182 102.1430 257.9695 15.08849977 98190,6917.85,95.437,540.533,538.897,0.0
53417.0,STARLINK-4484,PAYLOAD,2024-05-16 21:11:29,15.08860141,0.0001218,53.2166,205.0852,102.1867,257.9262,0.00026198,3.886e-05,0.0,0 STARLINK-4484,1 53417U 22097AF  24137.88298046  .00003886  00000-0  26198-3 0  9996,2 53417  53.2166 205.0852 0001218 102.1867 257.9262 15.08860141 98716,6917.819,95.436,540.526,538.841,0.0
53417.0,STARLINK-4484,PAYLOAD,2024-05-17 13:05:21,15.0884388,0.0001617,53.2177,202.1143,102.2837,257.8337,0.00012173,1.65e-05,0.0,0 STARLINK-4484,1 53417U 22097AF  24138.54538596  .00001650  00000-0  12173-3 0  9992,2 53417  53.2177 202.1143 0001617 102.2837 257.8337 15.08843880 98353,6917.869,95.437,540.852,538.615,0.0
53417.0,STARLINK-4484,PAYLOAD,2024-05-17 21:02:16,15.08857788,0.0001212,53.2161,200.6249,71.852,288.2604,0.00072994,0.00011354,0.0,0 STARLINK-4484,1 53417U 22097AF  24138.87658234  .00011354  00000-0  72994-3 0  9999,2 53417  53.2161 200.6249 0001212  71.8520 288.2604 15.08857788 98860,6917.826,95.436,540.529,538.853,0.0
53417.0,STARLINK-4484,PAYLOAD,2024-05-18 12:56:08,15.08846781,0.0001865,53.2172,197.6538,83.376,276.7445,0.00023334,3.428e-05,0.0,0 STARLINK-4484,1 53417U 22097AF  24139.53898693  .00003428  00000-0  23334-3 0  9995,2 53417  53.2172 197.6538 0001865  83.3760 276.7445 15.08846781 98503,6917.86,95.437,541.015,538.434,0.0
53417.0,STARLINK-4484,PAYLOAD,2024-05-18 20:53:04,15.08846406,0.0001558,53.2163,196.1638,81.0998,279.0171,0.00039633,6.026e-05,0.0,0 STARLINK-4484,1 53417U 22097AF  24139.87018574  .00006026  00000-0  39633-3 0  9990,2 53417  53.2163 196.1638 0001558  81.0998 279.0171 15.08846406 99018,6917.861,95.437,540.804,538.648,0.0
53417.0,STARLINK-4484,PAYLOAD,2024-05-19 12:46:57,15.08800676,0.0001547,53.216,193.1907,89.9055,270.2114,-0.00039687,-6.592e-05,0.0,0 STARLINK-4484,1 53417U 22097AF  24140.53261129 -.00006592  00000-0 -39687-3 0  9990,2 53417  53.2160 193.1907 0001547  89.9055 270.2114 15.08800676 99110,6918.001,95.44,540.936,538.795,0.0
53417.0,STARLINK-4484,PAYLOAD,2024-05-20 03:05:26,15.08821573,0.0001406,53.2167,190.5174,85.6379,274.4774,0.0011882,0.00018663,0.0,0 STARLINK-4484,1 53417U 22097AF  24141.12878228  .00018663  00000-0  11882-2 0  9996,2 53417  53.2167 190.5174 0001406  85.6379 274.4774 15.08821573 98745,6917.937,95.439,540.774,538.829,0.0
53417.0,STARLINK-4484,PAYLOAD,2024-05-20 12:37:45,15.08872076,0.0001319,53.2146,188.7334,91.507,268.6073,0.0022708,0.00036069,0.0,0 STARLINK-4484,1 53417U 22097AF  24141.52621558  .00036069  00000-0  22708-2 0  9991,2 53417  53.2146 188.7334 0001319  91.5070 268.6073 15.08872076 98804,6917.782,95.436,540.56,538.735,0.0
53417.0,STARLINK-4484,PAYLOAD,2024-05-21 02:56:12,15.08878733,0.0001255,53.2145,186.0568,91.3568,268.7568,0.0016703,0.00026423,0.0,0 STARLINK-4484,1 53417U 22097AF  24142.12236825  .00026423  00000-0  16703-2 0  9998,2 53417  53.2145 186.0568 0001255  91.3568 268.7568 15.08878733 98897,6917.762,95.435,540.495,538.759,0.0
53417.0,STARLINK-4484,PAYLOAD,2024-05-21 09:17:44,15.08863941,0.0002032,53.2162,184.86,143.7885,216.3245,0.0007158,0.0001113,0.0,0 STARLINK-4484,1 53417U 22097AF  24142.38732264  .00011130  00000-0  71580-3 0  9998,2 53417  53.2162 184.8600 0002032 143.7885 216.3245 15.08863941 98938,6917.807,95.436,541.078,538.267,0.0
53417.0,STARLINK-4484,PAYLOAD,2024-05-22 02:46:59,15.08855019,0.0001731,53.2159,181.5959,101.2118,258.9069,0.00053895,8.303e-05,0.0,0 STARLINK-4484,1 53417U 22097AF  24143.11596305  .00008303  00000-0  53895-3 0  9991,2 53417  53.2159 181.5959 0001731 101.2118 258.9069 15.08855019 99044,6917.834,95.437,540.897,538.502,0.0
53417.0,STARLINK-4484,PAYLOAD,2024-05-22 09:08:31,15.08850104,0.0001588,53.216,180.4035,118.6554,241.4598,-5.1249e-05,-1.104e-05,0.0,0 STARLINK-4484,1 53417U 22097AF  24143.38092167 -.00001104  00000-0 -51249-4 0  9993,2 53417  53.2160 180.4035 0001588 118.6554 241.4598 15.08850104 99083,6917.85,95.437,540.813,538.616,0.0
53417.0,STARLINK-4484,PAYLOAD,2024-05-23 05:48:32,15.08842984,0.0001344,53.2161,176.5377,104.3252,255.789,1.1085e-05,-1.11e-06,0.0,0 STARLINK-4484,1 53417U 22097AF  24144.24204331 -.00000111  00000-0  11085-4 0  9997,2 53417  53.2161 176.5377 0001344 104.3252 255.7890 15.08842984 99211,6917.871,95.437,540.666,538.807,0.0
53417.0,STARLINK-4484,PAYLOAD,2024-05-23 08:59:18,15.08843075,0.0001354,53.2164,175.9432,104.3957,255.7186,1.8282e-06,-2.59e-06,0.0,0 STARLINK-4484,1 53417U 22097AF  24144.37452257 -.00000259  00000-0  18282-5 0  9993,2 53417  53.2164 175.9432 0001354 104.3957 255.7186 15.08843075 99694,6917.871,95.437,540.673,538.799,0.0
53417.0,STARLINK-4484,PAYLOAD,2024-05-24 08:50:05,15.08840596,0.0001274,53.2162,171.4822,94.3215,265.7922,4.9308e-05,4.97e-06,0.0,0 STARLINK-4484,1 53417U 22097AF  24145.36812108  .00000497  00000-0  49308-4 0  9993,2 53417  53.2162 171.4822 0001274  94.3215 265.7922 15.08840596 99382,6917.879,95.438,540.625,538.862,0.0
53417.0,STARLINK-4484,PAYLOAD,2024-05-25 08:40:53,15.0883331,0.0001303,53.2165,167.0241,77.6823,282.4315,2.499e-05,1.1e-06,0.0,0 STARLINK-4484,1 53417U 22097AF  24146.36172782  .00000110  00000-0  24990-4 0  9993,2 53417  53.2165 167.0241 0001303  77.6823 282.4315 15.08833310 99538,6917.901,95.438,540.667,538.864,0.0
53417.0,STARLINK-4484,PAYLOAD,2024-05-25 18:13:13,15.08807656,0.0001332,53.2168,165.2449,173.5613,186.5396,-0.00036359,-6.065e-05,0.0,0 STARLINK-4484,1 53417U 22097AF  24146.75918820 -.00006065  00000-0 -36359-3 0  9995,2 53417  53.2168 165.2449 0001332 173.5613 186.5396 15.08807656 99599,6917.979,95.44,540.766,538.923,0.0
53417.0,STARLINK-4484,PAYLOAD,2024-05-26 10:07:03,15.08839595,0.000132,53.2163,162.2657,93.6058,266.5085,2.9602e-05,1.83e-06,0.0,0 STARLINK-4484,1 53417U 22097AF  24147.42156538  .00000183  00000-0  29602-4 0  9997,2 53417  53.2163 162.2657 0001320  93.6058 266.5085 15.08839595 99696,6917.882,95.438,540.66,538.833,0.0
53417.0,STARLINK-4484,PAYLOAD,2024-05-26 18:03:58,15.08851047,0.0001068,53.2164,160.777,125.2746,234.8346,-0.00011791,-2.164e-05,0.0,0 STARLINK-4484,1 53417U 22097AF  24147.75275875 -.00002164  00000-0 -11791-3 0  9991,2 53417  53.2164 160.7770 0001068 125.2746 234.8346 15.08851047 99741,6917.847,95.437,540.45,538.973,0.0
53417.0,STARLINK-4484,PAYLOAD,2024-05-27 09:57:50,15.0883216,0.0001385,53.2166,157.8053,100.0466,260.0683,0.00015542,2.186e-05,0.0,0 STARLINK-4484,1 53417U 22097AF  24148.41516721  .00002186  00000-0  15542-3 0  9993,2 53417  53.2166 157.8053 0001385 100.0466 260.0683 15.08832160 99847,6917.904,95.438,540.727,538.811,0.0
53417.0,STARLINK-4484,PAYLOAD,2024-05-28 09:48:37,15.08843349,0.0001357,53.2162,153.3445,83.4645,276.6501,6.0549e-05,6.76e-06,0.0,0 STARLINK-4484,1 53417U 22097AF  24149.40876317  .00000676  00000-0  60549-4 0  9993,2 53417  53.2162 153.3445 0001357  83.4645 276.6501 15.08843349100454,6917.87,95.437,540.674,538.796,0.0
53417.0,STARLINK-4484,PAYLOAD,2024-05-29 06:28:38,15.08839259,0.000127,53.2159,149.4778,91.5996,268.5142,1.3861e-05,-6.7e-07,0.0,0 STARLINK-4484,1 53417U 22097AF  24150.26988540 -.00000067  00000-0  13861-4 0  9991,2 53417  53.2159 149.4778 0001270  91.5996 268.5142 15.08839259100128,6917.883,95.438,540.626,538.869,0.0
53417.0,STARLINK-4484,PAYLOAD,2024-05-30 09:30:11,15.08840702,0.0001347,53.2163,144.4231,99.1396,260.9749,1.7524e-05,-9e-08,0.0,0 STARLINK-4484,1 53417U 22097AF  24151.39596425 -.00000009  00000-0  17524-4 0  9999,2 53417  53.2163 144.4231 0001347  99.1396 260.9749 15.08840702100297,6917.878,95.438,540.675,538.811,0.0
53417.0,STARLINK-4484,PAYLOAD,2024-05-31 09:20:58,15.08837528,0.0001349,53.2164,139.963,101.5694,258.5449,3.9539e-05,3.41e-06,0.0,0 STARLINK-4484,1 53417U 22097AF  24152.38956632  .00000341  00000-0  39539-4 0  9997,2 53417  53.2164 139.9630 0001349 101.5694 258.5449 15.08837528100901,6917.888,95.438,540.686,538.82,0.0
53417.0,STARLINK-4484,PAYLOAD,2024-05-31 15:42:30,15.08840984,0.0001327,53.2166,138.7739,91.7183,268.3961,6.1678e-05,6.94e-06,0.0,0 STARLINK-4484,1 53417U 22097AF  24152.65452405  .00000694  00000-0  61678-4 0  9996,2 53417  53.2166 138.7739 0001327  91.7183 268.3961 15.08840984100480,6917.877,95.437,540.66,538.824,0.0
